GLOBALSTAR M001         
1 25162U 98008A   25255.96408023 -.00000087  00000+0  71993-4 0  9990
2 25162  52.0026  77.7395 0002335  81.3246  84.1936 12.38217271254587
GLOBALSTAR M004         
1 25163U 98008B   25255.95828425 -.00000045  00000+0  32227-3 0  9992
2 25163  51.9998 146.3831 0003530 115.2797 258.2561 12.63402776272782
GLOBALSTAR M002         
1 25164U 98008C   25255.77161155 -.00000082  00000+0 -11511-3 0  9998
2 25164  52.0047  20.5994 0000789 324.9406  35.1362 11.61511868194247
GLOBALSTAR M003         
1 25165U 98008D   25255.80567252 -.00000188  00000+0 -10485-2 0  9996
2 25165  51.9955 285.8574 0008388 107.9901  63.3238 12.12061431243845
GLOBALSTAR M014         
1 25306U 98023A   25255.88587778 -.00000068  00000+0  18568-3 0  9990
2 25306  51.9848 301.6978 0001167 152.0021  17.1863 11.65481770201394
GLOBALSTAR M006         
1 25307U 98023B   25255.75468609 -.00000057  00000+0  37374-3 0  9992
2 25307  51.9980 357.7719 0002554 257.5971 271.3831 11.58175600226977
GLOBALSTAR M015         
1 25308U 98023C   25255.82679837 -.00000101  00000+0 -62376-3 0  9999
2 25308  51.9809 100.0787 0011761 230.3303 143.9211 11.48859107204152
GLOBALSTAR M008         
1 25309U 98023D   25255.91409700 -.00000077  00000+0  14950-3 0  9996
2 25309  51.9977 303.7142 0002512   7.8155 162.1198 12.36071935248699
